NORAD_CAT_ID,OBJECT_NAME,OBJECT_TYPE,EPOCH,MEAN_MOTION,ECCENTRICITY,INCLINATION,RA_OF_ASC_NODE,ARG_OF_PERICENTER,MEAN_ANOMALY,BSTAR,MEAN_MOTION_DOT,MEAN_MOTION_DDOT,TLE_LINE0,TLE_LINE1,TLE_LINE2,SEMIMAJOR_AXIS,PERIOD,APOGEE,PERIGEE,DECAYED
51753.0,STARLINK-3507,PAYLOAD,2022-07-17 22:00:00,15.08829636,0.0001941,53.2161,163.1955,59.3269,165.8426,0.00091978,0.00014376,0.0,0 STARLINK-3507,1 51753U 22016AR  22198.91667824  .00014376  00000-0  91978-3 0  9995,2 51753  53.2161 163.1955 0001941  59.3269 165.8426 15.08829636  1304,6917.9119999999975,95.438,541.12,538.434,0.0
51753.0,STARLINK-3507,PAYLOAD,2022-07-18 14:00:01,15.08852616,0.0001993,53.2156,160.2034,55.4071,192.9323,-0.0017432,-0.00027934,0.0,0 STARLINK-3507,1 51753U 22016AR  22199.58334491 -.00027934  00000-0 -17432-2 0  9998,2 51753  53.2156 160.2034 0001993  55.4071 192.9323 15.08852616  1300,6917.842,95.437,541.086,538.328,0.0
51753.0,STARLINK-3507,PAYLOAD,2022-07-18 16:00:00,15.0883576,0.0001943,53.2156,159.829,57.2439,284.0009,0.00021598,3.15e-05,0.0,0 STARLINK-3507,1 51753U 22016AR  22199.66667824  .00003150  00000-0  21598-3 0  9997,2 51753  53.2156 159.8290 0001943  57.2439 284.0009 15.08835760 23973,6917.893,95.438,541.102,538.414,0.0
51753.0,STARLINK-3507,PAYLOAD,2022-07-18 22:00:00,15.08854953,0.0001922,53.2157,158.7066,60.4126,199.5211,-0.0025371,-0.00040457,0.0,0 STARLINK-3507,1 51753U 22016AR  22199.91667824 -.00040457  00000-0 -25371-2 0  9990,2 51753  53.2157 158.7066 0001922  60.4126 199.5211 15.08854953  1302,6917.835,95.437,541.029,538.37,0.0
51753.0,STARLINK-3507,PAYLOAD,2022-07-19 14:00:01,15.08843461,0.0001951,53.2152,155.7143,55.337,227.7728,-0.001263,-0.00020335,0.0,0 STARLINK-3507,1 51753U 22016AR  22200.58334491 -.00020335  00000-0 -12630-2 0  9994,2 51753  53.2152 155.7143 0001951  55.3370 227.7728 15.08843461  1305,6917.87,95.437,541.0840000000002,538.385,0.0
51753.0,STARLINK-3507,PAYLOAD,2022-07-19 22:00:00,15.08901771,0.0001931,53.216,154.2124,59.7766,234.9091,-0.0094984,-0.00148609,0.0,0 STARLINK-3507,1 51753U 22016AR  22200.91667824 -.00148609  00000-0 -94984-2 0  9997,2 51753  53.2160 154.2124 0001931  59.7766 234.9091 15.08901771  1304,6917.691999999999,95.434,540.8919999999998,538.221,0.0
51753.0,STARLINK-3507,PAYLOAD,2022-07-20 14:00:01,15.08825707,0.0001821,53.2152,151.2251,57.0075,260.8055,-0.00049507,-8.156e-05,0.0,0 STARLINK-3507,1 51753U 22016AR  22201.58334491 -.00008156  00000-0 -49507-3 0  9996,2 51753  53.2152 151.2251 0001821  57.0075 260.8055 15.08825707  1307,6917.924,95.438,541.049,538.529,0.0
51753.0,STARLINK-3507,PAYLOAD,2022-07-20 22:00:01,15.08834128,0.0001849,53.2153,149.7284,61.3266,268.1119,0.00023284,3.419e-05,0.0,0 STARLINK-3507,1 51753U 22016AR  22201.91668981  .00003419  00000-0  23284-3 0  9996,2 51753  53.2153 149.7284 0001849  61.3266 268.1119 15.08834128  1305,6917.898,95.438,541.0419999999998,538.484,0.0
51753.0,STARLINK-3507,PAYLOAD,2022-07-21 08:00:01,15.08818619,0.0001985,53.2151,147.8596,53.7369,20.1266,0.0030273,0.00048193,0.0,0 STARLINK-3507,1 51753U 22016AR  22202.33334491  .00048193  00000-0  30273-2 0  9992,2 51753  53.2151 147.8596 0001985  53.7369  20.1266 15.08818619 24387,6917.946,95.439,541.184,538.438,0.0
51753.0,STARLINK-3507,PAYLOAD,2022-07-21 14:00:01,15.08843896,0.0001909999999999,53.2155,146.7358,58.3212,294.2921,-0.00033535,-5.622e-05,0.0,0 STARLINK-3507,1 51753U 22016AR  22202.58335648 -.00005622  00000-0 -33535-3 0  9991,2 51753  53.2155 146.7358 0001910  58.3212 294.2921 15.08843896  1305,6917.868,95.437,541.055,538.4119999999998,0.0
51753.0,STARLINK-3507,PAYLOAD,2022-07-21 22:00:00,15.08862025,0.0001915,53.2157,145.2393,61.444,302.6981,-0.0004876,-8.045e-05,0.0,0 STARLINK-3507,1 51753U 22016AR  22202.91667824 -.00008045  00000-0 -48760-3 0  9990,2 51753  53.2157 145.2393 0001915  61.4440 302.6981 15.08862025 24460,6917.813,95.436,541.003,538.3530000000002,0.0
51753.0,STARLINK-3507,PAYLOAD,2022-07-22 06:00:00,15.08841092,0.0002008,53.2157,143.7444,55.2215,320.5493,0.0006107,9.445e-05,0.0,0 STARLINK-3507,1 51753U 22016AR  22203.25001157  .00009445  00000-0  61070-3 0  9991,2 51753  53.2157 143.7444 0002008  55.2215 320.5493 15.08841092  1301,6917.877,95.437,541.131,538.3530000000002,0.0
51753.0,STARLINK-3507,PAYLOAD,2022-07-22 22:00:00,15.08875531,0.0001828,53.2161,140.7501,60.9564,338.0189,-0.0010765999999999,-0.00017398,0.0,0 STARLINK-3507,1 51753U 22016AR  22203.91667824 -.00017398  00000-0 -10766-2 0  9996,2 51753  53.2161 140.7501 0001828  60.9564 338.0189 15.08875531  1307,6917.772,95.435,540.901,538.372,0.0
51753.0,STARLINK-3507,PAYLOAD,2022-07-23 08:00:01,15.0884095,0.000185,53.2158,138.8808,51.99100000000001,91.507,-0.0014954,-0.0002400999999999,0.0,0 STARLINK-3507,1 51753U 22016AR  22204.33334491 -.00024010  00000-0 -14954-2 0  9996,2 51753  53.2158 138.8808 0001850  51.9910  91.5070 15.08840950 24684,6917.877,95.437,541.0219999999998,538.4630000000002,0.0
51753.0,STARLINK-3507,PAYLOAD,2022-07-23 14:00:01,15.08811599,0.0001641,53.2162,137.757,56.9478,5.3123,0.00017208,2.45e-05,0.0,0 STARLINK-3507,1 51753U 22016AR  22204.58335648  .00002450  00000-0  17208-3 0  9996,2 51753  53.2162 137.7570 0001641  56.9478   5.3123 15.08811599  1308,6917.967,95.439,540.967,538.697,0.0
51753.0,STARLINK-3507,PAYLOAD,2022-07-23 22:00:00,15.08835581,0.0001671,53.2163,136.2611,58.5037,15.2509,-0.0010341,-0.00016706,0.0,0 STARLINK-3507,1 51753U 22016AR  22204.91667824 -.00016706  00000-0 -10341-2 0  9998,2 51753  53.2163 136.2611 0001671  58.5037  15.2509 15.08835581  1306,6917.894,95.438,540.915,538.6030000000002,0.0
51753.0,STARLINK-3507,PAYLOAD,2022-07-24 06:00:00,15.08804038,0.0001784,53.2161,134.7662,52.3322,33.011,0.0031991,0.00050944,0.0,0 STARLINK-3507,1 51753U 22016AR  22205.25001157  .00050944  00000-0  31991-2 0  9991,2 51753  53.2161 134.7662 0001784  52.3322  33.0110 15.08804038 24828,6917.99,95.44,541.089,538.621,0.0
51753.0,STARLINK-3507,PAYLOAD,2022-07-24 14:00:01,15.08823327,0.0001626,53.2162,133.2682,58.7466,38.1768,0.0013339,0.00020995,0.0,0 STARLINK-3507,1 51753U 22016AR  22205.58334491  .00020995  00000-0  13339-2 0  9996,2 51753  53.2162 133.2682 0001626  58.7466  38.1768 15.08823327  1304,6917.931,95.439,540.9209999999998,538.6709999999998,0.0
51753.0,STARLINK-3507,PAYLOAD,2022-07-24 22:00:00,15.08857617,0.0001686,53.2164,131.7724,60.4874,48.0143,-0.001388,-0.00022321,0.0,0 STARLINK-3507,1 51753U 22016AR  22205.91667824 -.00022321  00000-0 -13880-2 0  9990,2 51753  53.2164 131.7724 0001686  60.4874  48.0143 15.08857617  1301,6917.8269999999975,95.436,540.8580000000002,538.525,0.0
51753.0,STARLINK-3507,PAYLOAD,2022-07-25 14:00:01,15.08842521,0.0001621999999999,53.2161,128.7793,60.6093,71.1028,0.00049762,7.641e-05,0.0,0 STARLINK-3507,1 51753U 22016AR  22206.58334491  .00007641  00000-0  49762-3 0  9990,2 51753  53.2161 128.7793 0001622  60.6093  71.1028 15.08842521  1302,6917.873000000001,95.437,540.86,538.616,0.0
51753.0,STARLINK-3507,PAYLOAD,2022-07-25 22:00:00,15.08856033,0.0001641999999999,53.2162,127.2836,60.8982,82.4148,-0.0029523,-0.00046988,0.0,0 STARLINK-3507,1 51753U 22016AR  22206.91667824 -.00046988  00000-0 -29523-2 0  9997,2 51753  53.2162 127.2836 0001642  60.8982  82.4148 15.08856033 25077,6917.831,95.437,540.832,538.56,0.0
51753.0,STARLINK-3507,PAYLOAD,2022-07-26 14:00:01,15.08817663,0.0001585,53.2159,124.2904,60.7705,105.7234,0.0020296,0.00032141,0.0,0 STARLINK-3507,1 51753U 22016AR  22207.58334491  .00032141  00000-0  20296-2 0  9994,2 51753  53.2159 124.2904 0001585  60.7705 105.7234 15.08817663 25176,6917.949000000001,95.439,540.91,538.717,0.0
51753.0,STARLINK-3507,PAYLOAD,2022-07-26 22:00:00,15.08855359,0.0001686999999999,53.2161,122.7949,61.5246,116.5483,-0.0014898,-0.0002393,0.0,0 STARLINK-3507,1 51753U 22016AR  22207.91667824 -.00023930  00000-0 -14898-2 0  9999,2 51753  53.2161 122.7949 0001687  61.5246 116.5483 15.08855359  1302,6917.833000000001,95.437,540.865,538.531,0.0
51753.0,STARLINK-3507,PAYLOAD,2022-07-27 06:00:02,15.08827927,0.0001786999999999,53.2159,121.2995,55.1163,134.6236,0.0024401999999999,0.00038749,0.0,0 STARLINK-3507,1 51753U 22016AR  22208.25002315  .00038749  00000-0  24402-2 0  9999,2 51753  53.2159 121.2995 0001787  55.1163 134.6236 15.08827927 25271,6917.917,95.438,541.019,538.5459999999998,0.0
51753.0,STARLINK-3507,PAYLOAD,2022-07-27 14:00:01,15.08837121,0.000164,53.216,119.8014,61.2969,139.9842,0.0011502,0.00018063,0.0,0 STARLINK-3507,1 51753U 22016AR  22208.58334491  .00018063  00000-0  11502-2 0  9992,2 51753  53.2160 119.8014 0001640  61.2969 139.9842 15.08837121  1304,6917.889,95.438,540.889,538.62,0.0
51753.0,STARLINK-3507,PAYLOAD,2022-07-27 22:00:00,15.08852998,0.0001704,53.2162,118.306,60.0751,152.8074,-0.0024251999999999,-0.00038692,0.0,0 STARLINK-3507,1 51753U 22016AR  22208.91667824 -.00038692  00000-0 -24252-2 0  9996,2 51753  53.2162 118.3060 0001704  60.0751 152.8074 15.08852998  1308,6917.840999999999,95.437,540.884,538.5269999999998,0.0
51753.0,STARLINK-3507,PAYLOAD,2022-07-28 00:00:00,15.08834606,0.0001751999999999,53.2161,117.9324,57.3237,248.463,-0.00084342,-0.00013684,0.0,0 STARLINK-3507,1 51753U 22016AR  22209.00001157 -.00013684  00000-0 -84342-3 0  9999,2 51753  53.2161 117.9324 0001752  57.3237 248.4630 15.08834606 25386,6917.897,95.438,540.974,538.55,0.0
51753.0,STARLINK-3507,PAYLOAD,2022-07-28 14:00:01,15.08816642,0.0001661,53.2164,115.3124,60.4369,175.6323,0.0026596,0.00042267,0.0,0 STARLINK-3507,1 51753U 22016AR  22209.58334491  .00042267  00000-0  26596-2 0  9995,2 51753  53.2164 115.3124 0001661  60.4369 175.6323 15.08816642  1305,6917.9519999999975,95.439,540.966,538.668,0.0
51753.0,STARLINK-3507,PAYLOAD,2022-07-28 22:00:00,15.08857645,0.000178,53.2165,113.8172,59.6162,188.0387,-0.0012394,-0.00019969,0.0,0 STARLINK-3507,1 51753U 22016AR  22209.91667824 -.00019969  00000-0 -12394-2 0  9997,2 51753  53.2165 113.8172 0001780  59.6162 188.0387 15.08857645  1301,6917.826,95.436,540.923,538.46,0.0
